     3.02           N: GNSS NAV DATA    R: GLONASS          RINEX VERSION / TYPE
NetR9 5.01          Receiver Operator   20250228 032749 UTC PGM / RUN BY / DATE
    18    18  2441     7                                    LEAP SECONDS
                                                            END OF HEADER
R23 2025 02 28 03 15 00 -.148126855493D-03 -.909494701773D-12  .124200000000D+05
     -.848137695313D+03 -.133418273926D+01 -.465661287308D-08  .000000000000D+00
      .168948291016D+05  .225508403778D+01  .186264514923D-08  .300000000000D+01
     -.190944990234D+05  .205613327026D+01  .186264514923D-08  .000000000000D+00
R22 2025 02 28 03 15 00 -.625681132078D-04 -.181898940355D-11  .124200000000D+05
     -.113824663086D+05 -.347857475281D+00 -.558793544769D-08  .000000000000D+00
      .219634868164D+05  .789125442505D+00  .372529029846D-08 -.300000000000D+01
     -.616285986328D+04  .344133663177D+01  .000000000000D+00  .000000000000D+00
R21 2025 02 28 03 15 00 -.180584378541D-03 -.272848410532D-11  .124200000000D+05
     -.164458930664D+05  .109110736847D+01 -.279396772385D-08  .000000000000D+00
      .149303310547D+05 -.134395027161D+01  .372529029846D-08  .400000000000D+01
      .125594809570D+05  .302450084686D+01 -.279396772385D-08  .000000000000D+00
R12 2025 02 28 03 15 00  .513084232807D-04  .909494701773D-12  .124200000000D+05
      .116400605469D+05 -.277748394012D+01  .000000000000D+00  .000000000000D+00
      .100972924805D+05 -.149266242981D+00 -.186264514923D-08 -.100000000000D+01
      .203420878906D+05  .166590118408D+01 -.186264514923D-08  .000000000000D+00
R11 2025 02 28 03 15 00 -.140564516187D-04 -.454747350886D-11  .124200000000D+05
     -.999882031250D+04 -.291442871094D+01 -.931322574615D-09  .000000000000D+00
      .987784130859D+04 -.636672973633D-02  .931322574615D-09  .000000000000D+00
      .212879809570D+05 -.136798286438D+01 -.372529029846D-08  .000000000000D+00
R10 2025 02 28 03 15 00 -.291146337986D-03 -.454747350886D-11  .124200000000D+05
     -.235971708984D+05 -.123046016693D+01 -.186264514923D-08  .000000000000D+00
      .389159033203D+04  .119008064270D+00  .465661287308D-08 -.700000000000D+01
      .897221093750D+04 -.327496433258D+01 -.186264514923D-08  .000000000000D+00
R08 2025 02 28 03 15 00 -.597815960646D-05  .000000000000D+00  .123900000000D+05
      .172397070313D+04 -.939032554626D+00 -.465661287308D-08  .000000000000D+00
      .194689560547D+05 -.204772186279D+01  .931322574615D-09  .600000000000D+01
     -.163028842773D+05 -.253723049164D+01  .931322574615D-09  .000000000000D+00
R02 2025 02 28 03 15 00 -.368189066648D-04  .000000000000D+00  .124200000000D+05
      .149988735352D+05  .117171764374D+01  .000000000000D+00  .000000000000D+00
      .120880795898D+05  .196588134766D+01 -.279396772385D-08 -.400000000000D+01
      .167348994141D+05 -.248372364044D+01 -.186264514923D-08  .000000000000D+00
R01 2025 02 28 03 15 00  .116264447570D-03  .909494701773D-12  .124200000000D+05
      .130413701172D+05  .213094711304D+00 -.279396772385D-08  .000000000000D+00
      .219125336914D+05  .239295959473D-01 -.931322574615D-09  .100000000000D+01
      .932251464844D+03 -.357051467896D+01  .000000000000D+00  .000000000000D+00
R22 2025 02 28 03 45 00 -.625709071755D-04 -.181898940355D-11  .126000000000D+05
     -.115277236328D+05  .154902458191D+00 -.465661287308D-08  .000000000000D+00
      .227449721680D+05  .528392791748D-01  .465661287308D-08 -.300000000000D+01
      .190025390625D+03  .357150554657D+01 -.186264514923D-08  .000000000000D+00
R21 2025 02 28 03 45 00 -.180589966476D-03 -.272848410532D-11  .126000000000D+05
     -.143834331055D+05  .115584754944D+01 -.186264514923D-08  .000000000000D+00
      .118193164062D+05 -.209812068939D+01  .279396772385D-08  .400000000000D+01
      .174482290039D+05  .237218952179D+01 -.372529029846D-08  .000000000000D+00
R11 2025 02 28 03 45 00 -.140648335218D-04 -.454747350886D-11  .126000000000D+05
     -.148603637695D+05 -.244356060028D+01 -.931322574615D-09  .000000000000D+00
      .102222060547D+05  .366358757019D+00  .279396772385D-08  .000000000000D+00
      .180345771484D+05 -.222350502014D+01 -.372529029846D-08  .000000000000D+00
R12 2025 02 28 03 45 00  .513074919581D-04  .909494701773D-12  .126000000000D+05
      .633829736328D+04 -.306452941895D+01 -.931322574615D-09  .000000000000D+00
      .102088359375D+05  .285208702087D+00 -.931322574615D-09 -.100000000000D+01
      .225169057617D+05  .734966278076D+00 -.279396772385D-08  .000000000000D+00
R02 2025 02 28 03 45 00 -.368133187294D-04  .000000000000D+00  .126000000000D+05
      .170391123047D+05  .105031490326D+01 -.186264514923D-08  .000000000000D+00
      .149557983398D+05  .120948696136D+01 -.186264514923D-08 -.400000000000D+01
      .116752939453D+05 -.310176563263D+01 -.931322574615D-09  .000000000000D+00
R01 2025 02 28 03 45 00  .116267241538D-03  .909494701773D-12  .126000000000D+05
      .129744340820D+05 -.318717956543D+00 -.372529029846D-08  .000000000000D+00
      .212833950195D+05 -.696132659912D+00  .000000000000D+00  .100000000000D+01
     -.544771142578D+04 -.347233104706D+01  .000000000000D+00  .000000000000D+00
R23 2025 02 28 03 45 00 -.148128718138D-03 -.909494701773D-12  .126000000000D+05
     -.269279394531D+04 -.721075057983D+00 -.465661287308D-08  .000000000000D+00
      .206690161133D+05  .189028549194D+01  .372529029846D-08  .300000000000D+01
     -.147032290039D+05  .279142189026D+01  .931322574615D-09  .000000000000D+00
R10 2025 02 28 03 45 00 -.291154719889D-03 -.454747350886D-11  .126000000000D+05
     -.250440263672D+05 -.365865707397D+00 -.931322574615D-09  .000000000000D+00
      .420981054688D+04  .194864273071D+00  .558793544769D-08 -.700000000000D+01
      .280772167969D+04 -.353015708923D+01 -.931322574615D-09  .000000000000D+00
R08 2025 02 28 03 45 00 -.598002225161D-05  .000000000000D+00  .126000000000D+05
     -.509769042969D+03 -.154205226898D+01 -.372529029846D-08  .000000000000D+00
      .154967226562D+05 -.231695365906D+01  .279396772385D-08  .600000000000D+01
     -.201759169922D+05 -.173791599274D+01  .186264514923D-08  .000000000000D+00
